[{"OBJECT_NAME":"GALAXY 33 (G-33)","OBJECT_ID":"2022-128A","EPOCH":"2026-03-05T00:25:38.690688","MEAN_MOTION":1.00273895,"ECCENTRICITY":0.00018847,"INCLINATION":0.0175,"RA_OF_ASC_NODE":165.2977,"ARG_OF_PERICENTER":177.9169,"MEAN_ANOMALY":52.9895,"EPHEMERIS_TYPE":0,"CLASSIFICATION_TYPE":"U","NORAD_CAT_ID":54026,"ELEMENT_SET_NO":999,"REV_AT_EPOCH":1269,"BSTAR":0,"MEAN_MOTION_DOT":0,"MEAN_MOTION_DDOT":0},{"OBJECT_NAME":"GALAXY 34 (G-34)","OBJECT_ID":"2022-128B","EPOCH":"2026-03-05T02:10:38.765280","MEAN_MOTION":1.00273187,"ECCENTRICITY":0.00013768,"INCLINATION":0.013,"RA_OF_ASC_NODE":129.5428,"ARG_OF_PERICENTER":217.6718,"MEAN_ANOMALY":79.2813,"EPHEMERIS_TYPE":0,"CLASSIFICATION_TYPE":"U","NORAD_CAT_ID":54027,"ELEMENT_SET_NO":999,"REV_AT_EPOCH":1286,"BSTAR":0,"MEAN_MOTION_DOT":5.0e-7,"MEAN_MOTION_DDOT":0},{"OBJECT_NAME":"GALAXY 31 (G-31)","OBJECT_ID":"2022-153A","EPOCH":"2026-03-05T07:46:38.500608","MEAN_MOTION":1.00272772,"ECCENTRICITY":0.000149,"INCLINATION":0.0114,"RA_OF_ASC_NODE":186.2478,"ARG_OF_PERICENTER":168.2279,"MEAN_ANOMALY":164.2342,"EPHEMERIS_TYPE":0,"CLASSIFICATION_TYPE":"U","NORAD_CAT_ID":54243,"ELEMENT_SET_NO":999,"REV_AT_EPOCH":609,"BSTAR":0,"MEAN_MOTION_DOT":5.0e-8,"MEAN_MOTION_DDOT":0},{"OBJECT_NAME":"GALAXY 32 (G-32)","OBJECT_ID":"2022-153B","EPOCH":"2026-03-04T04:27:38.803392","MEAN_MOTION":1.00267915,"ECCENTRICITY":0.00030041,"INCLINATION":0.0222,"RA_OF_ASC_NODE":132.7365,"ARG_OF_PERICENTER":225.3208,"MEAN_ANOMALY":139.8078,"EPHEMERIS_TYPE":0,"CLASSIFICATION_TYPE":"U","NORAD_CAT_ID":54244,"ELEMENT_SET_NO":999,"REV_AT_EPOCH":1209,"BSTAR":0,"MEAN_MOTION_DOT":0,"MEAN_MOTION_DDOT":0},{"OBJECT_NAME":"GALAXY 35 (G-35)","OBJECT_ID":"2022-170A","EPOCH":"2026-03-06T13:30:52.042176","MEAN_MOTION":1.0027094,"ECCENTRICITY":0.00020186,"INCLINATION":0.0101,"RA_OF_ASC_NODE":183.2274,"ARG_OF_PERICENTER":165.8039,"MEAN_ANOMALY":284.8523,"EPHEMERIS_TYPE":0,"CLASSIFICATION_TYPE":"U","NORAD_CAT_ID":54741,"ELEMENT_SET_NO":999,"REV_AT_EPOCH":1186,"BSTAR":0,"MEAN_MOTION_DOT":-1.66e-6,"MEAN_MOTION_DDOT":0},{"OBJECT_NAME":"GALAXY 36 (G-36)","OBJECT_ID":"2022-170B","EPOCH":"2026-03-06T13:32:06.923328","MEAN_MOTION":1.00272392,"ECCENTRICITY":0.00021132,"INCLINATION":0.0191,"RA_OF_ASC_NODE":136.206,"ARG_OF_PERICENTER":263.5936,"MEAN_ANOMALY":238.4982,"EPHEMERIS_TYPE":0,"CLASSIFICATION_TYPE":"U","NORAD_CAT_ID":54742,"ELEMENT_SET_NO":999,"REV_AT_EPOCH":1174,"BSTAR":0,"MEAN_MOTION_DOT":-1.89e-6,"MEAN_MOTION_DDOT":0},{"OBJECT_NAME":"GALAXY 37 (G-37)","OBJECT_ID":"2023-112A","EPOCH":"2026-03-06T13:21:15.463008","MEAN_MOTION":1.00272035,"ECCENTRICITY":0.00020385,"INCLINATION":0.0136,"RA_OF_ASC_NODE":112.6439,"ARG_OF_PERICENTER":238.0643,"MEAN_ANOMALY":246.8634,"EPHEMERIS_TYPE":0,"CLASSIFICATION_TYPE":"U","NORAD_CAT_ID":57493,"ELEMENT_SET_NO":999,"REV_AT_EPOCH":951,"BSTAR":0,"MEAN_MOTION_DOT":4.4e-7,"MEAN_MOTION_DDOT":0}]
