GALAXY 33 (G-33)        
1 54026U 22128A   26064.01780892  .00000000  00000+0  00000+0 0  9993
2 54026   0.0175 165.2977 0001884 177.9169  52.9895  1.00273895 12691
GALAXY 34 (G-34)        
1 54027U 22128B   26064.09072645  .00000050  00000+0  00000+0 0  9997
2 54027   0.0130 129.5428 0001376 217.6718  79.2813  1.00273187 12860
GALAXY 31 (G-31)        
1 54243U 22153A   26064.32405672  .00000005  00000+0  00000+0 0  9991
2 54243   0.0114 186.2478 0001490 168.2279 164.2342  1.00272772  6096
GALAXY 32 (G-32)        
1 54244U 22153B   26063.18586578  .00000000  00000+0  00000+0 0  9995
2 54244   0.0222 132.7365 0003004 225.3208 139.8078  1.00267915 12092
GALAXY 35 (G-35)        
1 54741U 22170A   26065.56310234 -.00000166  00000+0  00000+0 0  9998
2 54741   0.0101 183.2274 0002018 165.8039 284.8523  1.00270940 11866
GALAXY 36 (G-36)        
1 54742U 22170B   26065.56396902 -.00000189  00000+0  00000+0 0  9990
2 54742   0.0191 136.2060 0002113 263.5936 238.4982  1.00272392 11749
GALAXY 37 (G-37)        
1 57493U 23112A   26065.55642897  .00000044  00000+0  00000+0 0  9998
2 57493   0.0136 112.6439 0002038 238.0643 246.8634  1.00272035  9513
